BEIDOU-2 IGSO-1         
1 36828U 10036A   26086.63883915 -.00000150  00000+0  00000+0 0  9997
2 36828  54.2909 163.6978 0057461 222.7538 133.1758  1.00295665 57273
BEIDOU-2 G4             
1 37210U 10057A   26095.84802053 -.00000109  00000+0  00000+0 0  9997
2 37210   3.4678  69.3535 0007147 215.5315  14.5514  1.00271657 56566
BEIDOU-2 IGSO-2         
1 37256U 10068A   26086.44836399 -.00000175  00000+0  00000+0 0  9998
2 37256  47.6922 272.8379 0048070 212.2935 326.6285  1.00251076 55976
BEIDOU-2 IGSO-3         
1 37384U 11013A   26095.76662249 -.00000184  00000+0  00000+0 0  9997
2 37384  62.3151  40.8354 0034285 189.3490 347.5113  1.00285893 54936
BEIDOU-2 IGSO-4         
1 37763U 11038A   26087.66258249 -.00000109  00000+0  00000+0 0  9993
2 37763  54.5871 166.4040 0156581 231.4212 120.2889  1.00260433 53838
BEIDOU-2 IGSO-5         
1 37948U 11073A   26093.97039089 -.00000174  00000+0  00000+0 0  9999
2 37948  47.8149 272.4589 0109539 220.8427 142.8662  1.00265759 52398
BEIDOU-2 G5             
1 38091U 12008A   26095.82798230  .00000059  00000+0  00000+0 0  9995
2 38091   3.3938  70.1117 0013136 261.6798 219.2073  1.00276523 51645
BEIDOU-2 M3             
1 38250U 12018A   26094.08855807 -.00000064  00000+0  00000+0 0  9991
2 38250  55.8207 307.3724 0020184 279.4080  80.3921  1.86229902 94564
BEIDOU-2 M4             
1 38251U 12018B   26095.09466574 -.00000060  00000+0  00000+0 0  9999
2 38251  55.7203 306.5582 0011346 286.5726  73.3277  1.86229620 94584
BEIDOU-2 M6             
1 38775U 12050B   26094.80463637 -.00000040  00000+0  00000+0 0  9999
2 38775  56.4825  65.3192 0014456 345.2296  14.7002  1.86231043 91944
BEIDOU-2 G6             
1 38953U 12059A   26095.91136294 -.00000172  00000+0  00000+0 0  9991
2 38953   4.2390  74.2826 0010949 312.2227 219.8453  1.00271711 49183
BEIDOU-3S IGSO-1S       
1 40549U 15019A   26082.29086919 -.00000163  00000+0  00000+0 0  9999
2 40549  49.3559 296.4949 0036261 190.1236 255.1180  1.00268843 40213
BEIDOU-3S M2S           
1 40748U 15037A   26095.29821012 -.00000058  00000+0  00000+0 0  9998
2 40748  54.9349 304.5553 0007711 276.2340  83.6991  1.86232104 72769
BEIDOU-3S M1S           
1 40749U 15037B   26093.90388687 -.00000063  00000+0  00000+0 0  9997
2 40749  54.9325 304.5916 0004693  43.1589 316.9018  1.86254958 72740
BEIDOU-3S IGSO-2S       
1 40938U 15053A   26094.90867057 -.00000141  00000+0  00000+0 0  9996
2 40938  49.3383 259.6493 0062372 189.8511 167.6444  1.00277370 38614
BEIDOU-2 IGSO-6         
1 41434U 16021A   26095.80725198 -.00000159  00000+0  00000+0 0  9992
2 41434  60.1313  38.7585 0058931 233.3967 308.1583  1.00272864 36756
BEIDOU-2 G7             
1 41586U 16037A   26095.89029640 -.00000351  00000+0  00000+0 0  9999
2 41586   1.5415  68.6376 0007576 350.0374 206.4972  1.00277470  6166
